[{"OBJECT_NAME":"STARLINK-30080","OBJECT_ID":"2023-067T","EPOCH":"2026-03-08T23:23:04.660800","MEAN_MOTION":15.01721703,"ECCENTRICITY":8.544e-5,"INCLINATION":42.9996,"RA_OF_ASC_NODE":265.3146,"ARG_OF_PERICENTER":262.4975,"MEAN_ANOMALY":97.577,"EPHEMERIS_TYPE":0,"CLASSIFICATION_TYPE":"U","NORAD_CAT_ID":56705,"ELEMENT_SET_NO":999,"REV_AT_EPOCH":15570,"BSTAR":2.3786545e-5,"MEAN_MOTION_DOT":1.13e-6,"MEAN_MOTION_DDOT":0},{"OBJECT_NAME":"DELTA 1 DEB","OBJECT_ID":"1977-065GP","EPOCH":"2026-03-02T03:31:01.237440","MEAN_MOTION":13.03355834,"ECCENTRICITY":0.09264479,"INCLINATION":28.9861,"RA_OF_ASC_NODE":227.6335,"ARG_OF_PERICENTER":184.391,"MEAN_ANOMALY":174.8,"EPHEMERIS_TYPE":0,"CLASSIFICATION_TYPE":"U","NORAD_CAT_ID":39102,"ELEMENT_SET_NO":999,"REV_AT_EPOCH":54183,"BSTAR":0.00017441468,"MEAN_MOTION_DOT":5.88e-6,"MEAN_MOTION_DDOT":0}]
